[{"OBJECT_NAME":"NEE-01 PEGASO","OBJECT_ID":"2013-018B","EPOCH":"2026-03-09T08:45:44.876736","MEAN_MOTION":14.93090964,"ECCENTRICITY":0.00136216,"INCLINATION":98.105,"RA_OF_ASC_NODE":209.346,"ARG_OF_PERICENTER":130.5869,"MEAN_ANOMALY":229.6537,"EPHEMERIS_TYPE":0,"CLASSIFICATION_TYPE":"U","NORAD_CAT_ID":39151,"ELEMENT_SET_NO":999,"REV_AT_EPOCH":69580,"BSTAR":0.00037910707,"MEAN_MOTION_DOT":3.896e-5,"MEAN_MOTION_DDOT":0},{"OBJECT_NAME":"ICEYE-X41","OBJECT_ID":"2025-009CV","EPOCH":"2026-03-09T16:55:08.694336","MEAN_MOTION":14.96071666,"ECCENTRICITY":0.00019001,"INCLINATION":97.711,"RA_OF_ASC_NODE":149.7146,"ARG_OF_PERICENTER":53.5813,"MEAN_ANOMALY":306.5584,"EPHEMERIS_TYPE":0,"CLASSIFICATION_TYPE":"U","NORAD_CAT_ID":62700,"ELEMENT_SET_NO":999,"REV_AT_EPOCH":6253,"BSTAR":0.00045867277,"MEAN_MOTION_DOT":5.098e-5,"MEAN_MOTION_DDOT":0}]
